CCSDS_OMM_VERS = 2.0
CREATION_DATE  = 
ORIGINATOR     = 

OBJECT_NAME    = CYGNUS NG-23
OBJECT_ID      = 2025-208A
CENTER_NAME    = EARTH
REF_FRAME      = TEME
TIME_SYSTEM    = UTC
MEAN_ELEMENT_THEORY = SGP/SGP4

EPOCH          = 2026-01-01T18:58:54.170400
MEAN_MOTION    = 15.49013666
ECCENTRICITY   = .00075024
INCLINATION    = 51.6329
RA_OF_ASC_NODE = 43.1850
ARG_OF_PERICENTER = 328.5908
MEAN_ANOMALY   = 31.4631

EPHEMERIS_TYPE = 0
CLASSIFICATION_TYPE = U
NORAD_CAT_ID   = 65616
ELEMENT_SET_NO = 999
REV_AT_EPOCH   = 22
BSTAR          = .2633784E-3
MEAN_MOTION_DOT = .14103E-3
MEAN_MOTION_DDOT = 0

CCSDS_OMM_VERS = 2.0
CREATION_DATE  = 
ORIGINATOR     = 

OBJECT_NAME    = DRAGONFLY
OBJECT_ID      = 1998-067XH
CENTER_NAME    = EARTH
REF_FRAME      = TEME
TIME_SYSTEM    = UTC
MEAN_ELEMENT_THEORY = SGP/SGP4

EPOCH          = 2026-01-01T18:44:32.116128
MEAN_MOTION    = 15.80408153
ECCENTRICITY   = .00088172
INCLINATION    = 51.6242
RA_OF_ASC_NODE = 32.5778
ARG_OF_PERICENTER = 33.5283
MEAN_ANOMALY   = 326.6275

EPHEMERIS_TYPE = 0
CLASSIFICATION_TYPE = U
NORAD_CAT_ID   = 65729
ELEMENT_SET_NO = 999
REV_AT_EPOCH   = 1632
BSTAR          = .17248629E-2
MEAN_MOTION_DOT = .347575E-2
MEAN_MOTION_DDOT = 0

CCSDS_OMM_VERS = 2.0
CREATION_DATE  = 
ORIGINATOR     = 

OBJECT_NAME    = 1998-067XK
OBJECT_ID      = 1998-067XK
CENTER_NAME    = EARTH
REF_FRAME      = TEME
TIME_SYSTEM    = UTC
MEAN_ELEMENT_THEORY = SGP/SGP4

EPOCH          = 2026-01-01T08:49:28.498944
MEAN_MOTION    = 15.70097429
ECCENTRICITY   = .0005223
INCLINATION    = 51.6292
RA_OF_ASC_NODE = 37.3597
ARG_OF_PERICENTER = 6.3823
MEAN_ANOMALY   = 353.7240

EPHEMERIS_TYPE = 0
CLASSIFICATION_TYPE = U
NORAD_CAT_ID   = 65731
ELEMENT_SET_NO = 999
REV_AT_EPOCH   = 1622
BSTAR          = .12189E-2
MEAN_MOTION_DOT = .152587E-2
MEAN_MOTION_DDOT = 0

CCSDS_OMM_VERS = 2.0
CREATION_DATE  = 
ORIGINATOR     = 

OBJECT_NAME    = RSP-03
OBJECT_ID      = 1998-067XL
CENTER_NAME    = EARTH
REF_FRAME      = TEME
TIME_SYSTEM    = UTC
MEAN_ELEMENT_THEORY = SGP/SGP4

EPOCH          = 2026-01-01T23:06:20.953728
MEAN_MOTION    = 15.74839560
ECCENTRICITY   = .00064508
INCLINATION    = 51.6259
RA_OF_ASC_NODE = 33.0629
ARG_OF_PERICENTER = 16.2904
MEAN_ANOMALY   = 343.8302

EPHEMERIS_TYPE = 0
CLASSIFICATION_TYPE = U
NORAD_CAT_ID   = 65732
ELEMENT_SET_NO = 999
REV_AT_EPOCH   = 1634
BSTAR          = .15253046E-2
MEAN_MOTION_DOT = .236283E-2
MEAN_MOTION_DDOT = 0

CCSDS_OMM_VERS = 2.0
CREATION_DATE  = 
ORIGINATOR     = 

OBJECT_NAME    = GHS-01
OBJECT_ID      = 1998-067XM
CENTER_NAME    = EARTH
REF_FRAME      = TEME
TIME_SYSTEM    = UTC
MEAN_ELEMENT_THEORY = SGP/SGP4

EPOCH          = 2025-12-31T11:36:25.105824
MEAN_MOTION    = 15.85182050
ECCENTRICITY   = .00097359
INCLINATION    = 51.6279
RA_OF_ASC_NODE = 38.1728
ARG_OF_PERICENTER = 30.7902
MEAN_ANOMALY   = 329.3671

EPHEMERIS_TYPE = 0
CLASSIFICATION_TYPE = U
NORAD_CAT_ID   = 65733
ELEMENT_SET_NO = 999
REV_AT_EPOCH   = 1614
BSTAR          = .17623853E-2
MEAN_MOTION_DOT = .449903E-2
MEAN_MOTION_DDOT = 0

CCSDS_OMM_VERS = 2.0
CREATION_DATE  = 
ORIGINATOR     = 

OBJECT_NAME    = YOTSUBA-KULOVER
OBJECT_ID      = 1998-067XN
CENTER_NAME    = EARTH
REF_FRAME      = TEME
TIME_SYSTEM    = UTC
MEAN_ELEMENT_THEORY = SGP/SGP4

EPOCH          = 2026-01-01T13:27:26.125056
MEAN_MOTION    = 15.62488013
ECCENTRICITY   = .000337
INCLINATION    = 51.6300
RA_OF_ASC_NODE = 40.1525
ARG_OF_PERICENTER = 38.1673
MEAN_ANOMALY   = 321.9559

EPHEMERIS_TYPE = 0
CLASSIFICATION_TYPE = U
NORAD_CAT_ID   = 65941
ELEMENT_SET_NO = 999
REV_AT_EPOCH   = 1295
BSTAR          = .12619722E-2
MEAN_MOTION_DOT = .115643E-2
MEAN_MOTION_DDOT = 0

CCSDS_OMM_VERS = 2.0
CREATION_DATE  = 
ORIGINATOR     = 

OBJECT_NAME    = BOTAN
OBJECT_ID      = 1998-067XP
CENTER_NAME    = EARTH
REF_FRAME      = TEME
TIME_SYSTEM    = UTC
MEAN_ELEMENT_THEORY = SGP/SGP4

EPOCH          = 2026-01-01T23:01:02.375328
MEAN_MOTION    = 15.67867696
ECCENTRICITY   = .00043244
INCLINATION    = 51.6276
RA_OF_ASC_NODE = 36.8072
ARG_OF_PERICENTER = 27.9219
MEAN_ANOMALY   = 332.2009

EPHEMERIS_TYPE = 0
CLASSIFICATION_TYPE = U
NORAD_CAT_ID   = 65942
ELEMENT_SET_NO = 999
REV_AT_EPOCH   = 1303
BSTAR          = .15791938E-2
MEAN_MOTION_DOT = .181053E-2
MEAN_MOTION_DDOT = 0

CCSDS_OMM_VERS = 2.0
CREATION_DATE  = 
ORIGINATOR     = 

OBJECT_NAME    = E-KAGAKU-1
OBJECT_ID      = 1998-067XQ
CENTER_NAME    = EARTH
REF_FRAME      = TEME
TIME_SYSTEM    = UTC
MEAN_ELEMENT_THEORY = SGP/SGP4

EPOCH          = 2026-01-01T08:51:04.568832
MEAN_MOTION    = 15.62480347
ECCENTRICITY   = .00020247
INCLINATION    = 51.6307
RA_OF_ASC_NODE = 41.1262
ARG_OF_PERICENTER = 24.8503
MEAN_ANOMALY   = 335.2588

EPHEMERIS_TYPE = 0
CLASSIFICATION_TYPE = U
NORAD_CAT_ID   = 65943
ELEMENT_SET_NO = 999
REV_AT_EPOCH   = 1292
BSTAR          = .11721053E-2
MEAN_MOTION_DOT = .107212E-2
MEAN_MOTION_DDOT = 0

CCSDS_OMM_VERS = 2.0
CREATION_DATE  = 
ORIGINATOR     = 

OBJECT_NAME    = HTV-X1
OBJECT_ID      = 2025-241A
CENTER_NAME    = EARTH
REF_FRAME      = TEME
TIME_SYSTEM    = UTC
MEAN_ELEMENT_THEORY = SGP/SGP4

EPOCH          = 2026-01-01T18:58:54.170400
MEAN_MOTION    = 15.49013666
ECCENTRICITY   = .00075024
INCLINATION    = 51.6329
RA_OF_ASC_NODE = 43.1850
ARG_OF_PERICENTER = 328.5908
MEAN_ANOMALY   = 31.4631

EPHEMERIS_TYPE = 0
CLASSIFICATION_TYPE = U
NORAD_CAT_ID   = 66174
ELEMENT_SET_NO = 999
REV_AT_EPOCH   = 51
BSTAR          = .2633784E-3
MEAN_MOTION_DOT = .14103E-3
MEAN_MOTION_DDOT = 0

CCSDS_OMM_VERS = 2.0
CREATION_DATE  = 
ORIGINATOR     = 

OBJECT_NAME    = SHENZHOU-22
OBJECT_ID      = 2025-272A
CENTER_NAME    = EARTH
REF_FRAME      = TEME
TIME_SYSTEM    = UTC
MEAN_ELEMENT_THEORY = SGP/SGP4

EPOCH          = 2026-01-01T22:48:00.000864
MEAN_MOTION    = 15.60041329
ECCENTRICITY   = .00101484
INCLINATION    = 41.4663
RA_OF_ASC_NODE = 253.9368
ARG_OF_PERICENTER = 200.7574
MEAN_ANOMALY   = 159.2853

EPHEMERIS_TYPE = 0
CLASSIFICATION_TYPE = U
NORAD_CAT_ID   = 66645
ELEMENT_SET_NO = 999
REV_AT_EPOCH   = 26714
BSTAR          = .32147889E-3
MEAN_MOTION_DOT = .26593E-3
MEAN_MOTION_DDOT = 0

